[{"OBJECT_NAME":"COSMOS 2600","OBJECT_ID":"2026-023A","EPOCH":"2026-03-06T19:20:53.191680","MEAN_MOTION":15.83551027,"ECCENTRICITY":0.0002124,"INCLINATION":96.6427,"RA_OF_ASC_NODE":141.5413,"ARG_OF_PERICENTER":345.6628,"MEAN_ANOMALY":14.4583,"EPHEMERIS_TYPE":0,"CLASSIFICATION_TYPE":"U","NORAD_CAT_ID":67674,"ELEMENT_SET_NO":999,"REV_AT_EPOCH":459,"BSTAR":0.00040148,"MEAN_MOTION_DOT":0.00088018,"MEAN_MOTION_DDOT":0},{"OBJECT_NAME":"2026-023B","OBJECT_ID":"2026-023B","EPOCH":"2026-03-06T19:54:07.328736","MEAN_MOTION":15.22910737,"ECCENTRICITY":0.001933,"INCLINATION":96.6357,"RA_OF_ASC_NODE":139.1082,"ARG_OF_PERICENTER":141.853,"MEAN_ANOMALY":218.4081,"EPHEMERIS_TYPE":0,"CLASSIFICATION_TYPE":"U","NORAD_CAT_ID":67675,"ELEMENT_SET_NO":999,"REV_AT_EPOCH":442,"BSTAR":0.00058537,"MEAN_MOTION_DOT":0.00013752,"MEAN_MOTION_DDOT":0},{"OBJECT_NAME":"2026-023C","OBJECT_ID":"2026-023C","EPOCH":"2026-03-06T19:51:58.109760","MEAN_MOTION":15.23025576,"ECCENTRICITY":0.002033,"INCLINATION":96.6392,"RA_OF_ASC_NODE":139.1316,"ARG_OF_PERICENTER":132.255,"MEAN_ANOMALY":228.0418,"EPHEMERIS_TYPE":0,"CLASSIFICATION_TYPE":"U","NORAD_CAT_ID":67676,"ELEMENT_SET_NO":999,"REV_AT_EPOCH":458,"BSTAR":0.00067342,"MEAN_MOTION_DOT":0.00015896,"MEAN_MOTION_DDOT":0},{"OBJECT_NAME":"2026-023D","OBJECT_ID":"2026-023D","EPOCH":"2026-03-06T19:55:58.105632","MEAN_MOTION":15.22832982,"ECCENTRICITY":0.0020585,"INCLINATION":96.6422,"RA_OF_ASC_NODE":139.1207,"ARG_OF_PERICENTER":137.0558,"MEAN_ANOMALY":223.2292,"EPHEMERIS_TYPE":0,"CLASSIFICATION_TYPE":"U","NORAD_CAT_ID":67677,"ELEMENT_SET_NO":999,"REV_AT_EPOCH":441,"BSTAR":0.00056983,"MEAN_MOTION_DOT":0.00013363,"MEAN_MOTION_DDOT":0},{"OBJECT_NAME":"2026-023E","OBJECT_ID":"2026-023E","EPOCH":"2026-03-06T19:52:38.088768","MEAN_MOTION":15.23014406,"ECCENTRICITY":0.0020314,"INCLINATION":96.6316,"RA_OF_ASC_NODE":139.0986,"ARG_OF_PERICENTER":136.5336,"MEAN_ANOMALY":223.7508,"EPHEMERIS_TYPE":0,"CLASSIFICATION_TYPE":"U","NORAD_CAT_ID":67678,"ELEMENT_SET_NO":999,"REV_AT_EPOCH":441,"BSTAR":0.00069603,"MEAN_MOTION_DOT":0.00016428,"MEAN_MOTION_DDOT":0},{"OBJECT_NAME":"2026-023F","OBJECT_ID":"2026-023F","EPOCH":"2026-03-06T21:23:17.661696","MEAN_MOTION":15.23173915,"ECCENTRICITY":0.0022171,"INCLINATION":96.6325,"RA_OF_ASC_NODE":141.6573,"ARG_OF_PERICENTER":131.1861,"MEAN_ANOMALY":229.1295,"EPHEMERIS_TYPE":0,"CLASSIFICATION_TYPE":"U","NORAD_CAT_ID":67679,"ELEMENT_SET_NO":999,"REV_AT_EPOCH":441,"BSTAR":0.00077874,"MEAN_MOTION_DOT":0.00018499,"MEAN_MOTION_DDOT":0},{"OBJECT_NAME":"2026-023G","OBJECT_ID":"2026-023G","EPOCH":"2026-03-06T21:24:23.827680","MEAN_MOTION":15.23132834,"ECCENTRICITY":0.002368,"INCLINATION":96.6253,"RA_OF_ASC_NODE":141.6373,"ARG_OF_PERICENTER":127.8269,"MEAN_ANOMALY":232.5118,"EPHEMERIS_TYPE":0,"CLASSIFICATION_TYPE":"U","NORAD_CAT_ID":67680,"ELEMENT_SET_NO":999,"REV_AT_EPOCH":441,"BSTAR":0.00077244,"MEAN_MOTION_DOT":0.00018344,"MEAN_MOTION_DDOT":0},{"OBJECT_NAME":"2026-023H","OBJECT_ID":"2026-023H","EPOCH":"2026-03-06T21:24:43.663392","MEAN_MOTION":15.23051746,"ECCENTRICITY":0.002379,"INCLINATION":96.6398,"RA_OF_ASC_NODE":141.6727,"ARG_OF_PERICENTER":127.1766,"MEAN_ANOMALY":233.165,"EPHEMERIS_TYPE":0,"CLASSIFICATION_TYPE":"U","NORAD_CAT_ID":67681,"ELEMENT_SET_NO":999,"REV_AT_EPOCH":441,"BSTAR":0.00063669,"MEAN_MOTION_DOT":0.00015068,"MEAN_MOTION_DDOT":0},{"OBJECT_NAME":"2026-023J","OBJECT_ID":"2026-023J","EPOCH":"2026-03-06T21:22:50.323872","MEAN_MOTION":15.23158363,"ECCENTRICITY":0.0023864,"INCLINATION":96.6352,"RA_OF_ASC_NODE":141.6758,"ARG_OF_PERICENTER":123.9939,"MEAN_ANOMALY":236.3572,"EPHEMERIS_TYPE":0,"CLASSIFICATION_TYPE":"U","NORAD_CAT_ID":67682,"ELEMENT_SET_NO":999,"REV_AT_EPOCH":441,"BSTAR":0.00065686,"MEAN_MOTION_DOT":0.00015598,"MEAN_MOTION_DDOT":0},{"OBJECT_NAME":"ISS OBJECT XZ","OBJECT_ID":"1998-067XZ","EPOCH":"2026-03-06T10:37:58.419264","MEAN_MOTION":15.51523335,"ECCENTRICITY":0.00094596,"INCLINATION":51.6308,"RA_OF_ASC_NODE":87.9775,"ARG_OF_PERICENTER":174.9626,"MEAN_ANOMALY":185.146,"EPHEMERIS_TYPE":0,"CLASSIFICATION_TYPE":"U","NORAD_CAT_ID":67683,"ELEMENT_SET_NO":999,"REV_AT_EPOCH":428,"BSTAR":0.00067173175,"MEAN_MOTION_DOT":0.00040277,"MEAN_MOTION_DDOT":0},{"OBJECT_NAME":"GXIBA-1","OBJECT_ID":"1998-067YA","EPOCH":"2026-03-06T08:33:09.123840","MEAN_MOTION":15.53698977,"ECCENTRICITY":0.00109321,"INCLINATION":51.6296,"RA_OF_ASC_NODE":88.1497,"ARG_OF_PERICENTER":164.4811,"MEAN_ANOMALY":195.6517,"EPHEMERIS_TYPE":0,"CLASSIFICATION_TYPE":"U","NORAD_CAT_ID":67684,"ELEMENT_SET_NO":999,"REV_AT_EPOCH":427,"BSTAR":0.0011727792,"MEAN_MOTION_DOT":0.0007687,"MEAN_MOTION_DDOT":0},{"OBJECT_NAME":"CORAL","OBJECT_ID":"1998-067YB","EPOCH":"2026-03-06T08:59:53.384352","MEAN_MOTION":15.51836923,"ECCENTRICITY":0.00113315,"INCLINATION":51.6303,"RA_OF_ASC_NODE":88.2731,"ARG_OF_PERICENTER":171.0094,"MEAN_ANOMALY":189.11,"EPHEMERIS_TYPE":0,"CLASSIFICATION_TYPE":"U","NORAD_CAT_ID":67685,"ELEMENT_SET_NO":999,"REV_AT_EPOCH":427,"BSTAR":0.00072551429,"MEAN_MOTION_DOT":0.0004409,"MEAN_MOTION_DDOT":0},{"OBJECT_NAME":"ISS OBJECT YC","OBJECT_ID":"1998-067YC","EPOCH":"2026-03-06T08:53:28.719456","MEAN_MOTION":15.52303119,"ECCENTRICITY":0.00078269,"INCLINATION":51.6305,"RA_OF_ASC_NODE":88.2448,"ARG_OF_PERICENTER":138.7374,"MEAN_ANOMALY":221.4209,"EPHEMERIS_TYPE":0,"CLASSIFICATION_TYPE":"U","NORAD_CAT_ID":67686,"ELEMENT_SET_NO":999,"REV_AT_EPOCH":427,"BSTAR":0.00083918789,"MEAN_MOTION_DOT":0.00051923,"MEAN_MOTION_DDOT":0},{"OBJECT_NAME":"LEOPARD","OBJECT_ID":"1998-067YD","EPOCH":"2026-03-06T10:35:07.082880","MEAN_MOTION":15.51685674,"ECCENTRICITY":0.00077795,"INCLINATION":51.6311,"RA_OF_ASC_NODE":87.9659,"ARG_OF_PERICENTER":143.5641,"MEAN_ANOMALY":216.588,"EPHEMERIS_TYPE":0,"CLASSIFICATION_TYPE":"U","NORAD_CAT_ID":67687,"ELEMENT_SET_NO":999,"REV_AT_EPOCH":420,"BSTAR":0.00073033201,"MEAN_MOTION_DOT":0.00044085,"MEAN_MOTION_DDOT":0},{"OBJECT_NAME":"ISS OBJECT YE","OBJECT_ID":"1998-067YE","EPOCH":"2026-03-06T08:56:21.134112","MEAN_MOTION":15.52085564,"ECCENTRICITY":0.00077521,"INCLINATION":51.6307,"RA_OF_ASC_NODE":88.258,"ARG_OF_PERICENTER":139.1868,"MEAN_ANOMALY":220.9703,"EPHEMERIS_TYPE":0,"CLASSIFICATION_TYPE":"U","NORAD_CAT_ID":67688,"ELEMENT_SET_NO":999,"REV_AT_EPOCH":419,"BSTAR":0.00077965705,"MEAN_MOTION_DOT":0.00047802,"MEAN_MOTION_DDOT":0},{"OBJECT_NAME":"PRC TEST SPACECRAFT 4","OBJECT_ID":"2026-024A","EPOCH":"2026-03-06T19:31:45.160896","MEAN_MOTION":14.91685632,"ECCENTRICITY":0.0006108,"INCLINATION":49.9863,"RA_OF_ASC_NODE":36.2718,"ARG_OF_PERICENTER":349.1666,"MEAN_ANOMALY":10.9143,"EPHEMERIS_TYPE":0,"CLASSIFICATION_TYPE":"U","NORAD_CAT_ID":67689,"ELEMENT_SET_NO":999,"REV_AT_EPOCH":415,"BSTAR":4.9259e-5,"MEAN_MOTION_DOT":2.57e-6,"MEAN_MOTION_DDOT":0},{"OBJECT_NAME":"CZ-2F R/B","OBJECT_ID":"2026-024B","EPOCH":"2026-03-06T18:31:55.538976","MEAN_MOTION":15.34193911,"ECCENTRICITY":0.0174816,"INCLINATION":49.9883,"RA_OF_ASC_NODE":29.2301,"ARG_OF_PERICENTER":262.7575,"MEAN_ANOMALY":95.3484,"EPHEMERIS_TYPE":0,"CLASSIFICATION_TYPE":"U","NORAD_CAT_ID":67690,"ELEMENT_SET_NO":999,"REV_AT_EPOCH":424,"BSTAR":0.0004364,"MEAN_MOTION_DOT":0.00023933,"MEAN_MOTION_DDOT":0}]
